STARLINK-11075 [DTC]    
1 58706U 24002B   26135.87410552  .00019363  00000+0  14153-3 0  9991
2 58706  53.1514 302.5212 0002195 307.3239  52.7580 15.73285409136995
STARLINK-11077 [DTC]    
1 58707U 24002C   26136.16509063  .00001901  00000+0  20536-4 0  9993
2 58707  53.1573 301.4837 0000839  80.8242 279.2871 15.69716216137037
STARLINK-11079 [DTC]    
1 58708U 24002D   26135.45001938 -.00000850  00000+0 -21608-5 0  9999
2 58708  53.1588 304.8489 0000867  88.5320 271.5797 15.69704557136921
STARLINK-11076 [DTC]    
1 58709U 24002E   26135.89080544  .00009015  00000+0  74237-4 0  9993
2 58709  53.1569 302.6258 0001160  92.7325 267.4355 15.69720352136992
STARLINK-11078 [DTC]    
1 58710U 24002F   26135.88589016 -.00000223  00000+0  30183-5 0  9998
2 58710  53.1591 302.5947 0000935  88.3284 271.7842 15.69707637136997
STARLINK-31031          
1 58711U 24002G   26136.25002315  .00063055  00000+0  19133-2 0  9993
2 58711  53.1590 276.2214 0000971  92.7477  58.5959 15.33535661  5817
STARLINK-31029          
1 58712U 24002H   26135.80629055 -.00000195  00000+0  55233-5 0  9991
2 58712  53.1605 278.0116 0001028  70.3195 289.7917 15.30192733132290
STARLINK-30973          
1 58713U 24002J   26135.68198996  .00003280  00000+0  12285-3 0  9998
2 58713  53.1622 278.6608 0001089  86.9957 273.1168 15.30190444132278
STARLINK-31100          
1 58714U 24002K   26135.81579594 -.00000589  00000+0  00000+0 0  9999
2 58714  53.1571 278.0691 0000921  97.9369 262.2249 15.30192348132297
STARLINK-31102          
1 58715U 24002L   26136.10131484  .00000090  00000+0  15151-4 0  9999
2 58715  53.1615 277.0022 0001192  88.4140 271.6997 15.30194232132330
STARLINK-31098          
1 58716U 24002M   26135.81789586  .00000482  00000+0  28382-4 0  9994
2 58716  53.1606 278.0818 0000934  90.3588 269.7520 15.30196063132295
STARLINK-31093          
1 58717U 24002N   26135.82530046 -.00007967  00000+0  00000+0 0  9999
2 58717  53.1629 278.1392 0002188  89.4401 270.7365 15.30175213132298
STARLINK-31097          
1 58718U 24002P   26135.82211837 -.00000020  00000+0  11452-4 0  9995
2 58718  53.1605 278.1063 0000973  89.4750 270.6362 15.30193037132295
STARLINK-31051          
1 58719U 24002Q   26135.82739277  .00000407  00000+0  25869-4 0  9994
2 58719  53.1601 278.1359 0000962  82.6637 277.4474 15.30195410132293
STARLINK-31027          
1 58720U 24002R   26135.83748540  .00061930  00000+0  59115-3 0  9998
2 58720  53.1432 260.9464 0007665 226.6882 133.3495 15.66156238132536
STARLINK-30972          
1 58721U 24002S   26135.68304587 -.00000211  00000+0  49901-5 0  9991
2 58721  53.1590 278.6585 0000818  61.2835 298.8248 15.30196245132273
STARLINK-31040          
1 58722U 24002T   26136.28772075  .00003905  00000+0  14373-3 0  9995
2 58722  53.1599 276.0307 0001125  96.7929 263.3199 15.30237238132366
STARLINK-31033          
1 58723U 24002U   26135.82107615 -.00007229  00000+0  00000+0 0  9999
2 58723  53.1561 278.0948 0002057 100.7454 259.4292 15.30177695132295
STARLINK-30893          
1 58724U 24002V   26136.25002315  .00077119  00000+0  23359-2 0  9998
2 58724  53.1595 276.3253 0001074  69.9961  25.6679 15.33497944  5667
STARLINK-30856          
1 58725U 24002W   26135.42495143  .00000248  00000+0  20502-4 0  9990
2 58725  53.1608 279.8944 0000979  87.6619 272.4494 15.30197641132237
UNICORN-2L              
1 58727U 23185R   26136.16094260  .00006783  00000+0  31094-3 0  9997
2 58727  97.5404 209.9903 0014284  68.7715 291.5045 15.20700954129927
STARLINK-31115          
1 58729U 24005B   26136.19952118  .00000919  00000+0  42916-4 0  9990
2 58729  43.0002 198.8909 0001404 275.7765  84.2926 15.27579429130752
STARLINK-31180          
1 58732U 24005E   26135.57763109 -.00005042  00000+0 -17365-3 0  9998
2 58732  43.0054 201.9917 0002694 292.1508  67.9057 15.27605104130661
STARLINK-31164          
1 58733U 24005F   26135.55321784 -.00002448  00000+0 -79467-4 0  9995
2 58733  43.0025 201.7958 0001892 257.5535 102.5105 15.27573254130667
STARLINK-31152          
1 58734U 24005G   26136.14556976  .00002008  00000+0  82473-4 0  9996
2 58734  43.0028 198.5008 0001447 280.9143  79.1546 15.27574762130765
STARLINK-31157          
1 58735U 24005H   26136.14940523  .00001417  00000+0  61001-4 0  9999
2 58735  43.0046 198.5299 0001456 273.1348  86.9337 15.27584202130763
STARLINK-31076          
1 58736U 24005J   26136.15326466  .00000754  00000+0  36926-4 0  9996
2 58736  43.0017 198.5557 0000853 292.3130  67.7631 15.27586426130800
STARLINK-31101          
1 58737U 24005K   26136.22890970  .00004683  00000+0  17948-3 0  9998
2 58737  43.0037 198.2594 0002097 269.0275  91.0336 15.27602893130768
STARLINK-31108          
1 58738U 24005L   26136.15712117  .00002086  00000+0  85320-4 0  9992
2 58738  43.0050 198.5825 0002414 269.6537  90.4039 15.27583811130754
STARLINK-31042          
1 58739U 24005M   26136.23278494  .00001525  00000+0  64921-4 0  9998
2 58739  43.0033 198.2839 0001272 273.3124  86.7582 15.27581869130777
