OBJECT_NAME,OBJECT_ID,EPOCH,MEAN_MOTION,ECCENTRICITY,INCLINATION,RA_OF_ASC_NODE,ARG_OF_PERICENTER,MEAN_ANOMALY,EPHEMERIS_TYPE,CLASSIFICATION_TYPE,NORAD_CAT_ID,ELEMENT_SET_NO,REV_AT_EPOCH,BSTAR,MEAN_MOTION_DOT,MEAN_MOTION_DDOT
STARLINK-11075 [DTC],2024-002B,2026-05-15T20:58:42.716928,15.73285409,.00021956,53.1514,302.5212,307.3239,52.7580,0,U,58706,999,13699,.14153356E-3,.19363E-3,0
STARLINK-11077 [DTC],2024-002C,2026-05-16T03:57:43.830432,15.69716216,.00008399,53.1573,301.4837,80.8242,279.2871,0,U,58707,999,13703,.20536036E-4,.1901E-4,0
STARLINK-11079 [DTC],2024-002D,2026-05-15T10:48:01.674432,15.69704557,.00008677,53.1588,304.8489,88.5320,271.5797,0,U,58708,999,13692,-.2160821E-5,-.85E-5,0
STARLINK-11076 [DTC],2024-002E,2026-05-15T21:22:45.590016,15.69720352,.000116,53.1569,302.6258,92.7325,267.4355,0,U,58709,999,13699,.74237E-4,.9015E-4,0
STARLINK-11078 [DTC],2024-002F,2026-05-15T21:15:40.909824,15.69707637,.00009355,53.1591,302.5947,88.3284,271.7842,0,U,58710,999,13699,.3018253E-5,-.223E-5,0
STARLINK-31031,2024-002G,2026-05-16T06:00:02.000160,15.33535661,.00009719,53.1590,276.2214,92.7477,58.5959,0,U,58711,999,581,.19132823E-2,.63055E-3,0
STARLINK-31029,2024-002H,2026-05-15T19:21:03.503520,15.30192733,.00010286,53.1605,278.0116,70.3195,289.7917,0,U,58712,999,13229,.5523252E-5,-.195E-5,0
STARLINK-30973,2024-002J,2026-05-15T16:22:03.932544,15.30190444,.00010898,53.1622,278.6608,86.9957,273.1168,0,U,58713,999,13227,.12284762E-3,.328E-4,0
STARLINK-31100,2024-002K,2026-05-15T19:34:44.769216,15.30192348,.0000921,53.1571,278.0691,97.9369,262.2249,0,U,58714,999,13229,0,-.589E-5,0
STARLINK-31102,2024-002L,2026-05-16T02:25:53.602176,15.30194232,.0001192,53.1615,277.0022,88.4140,271.6997,0,U,58715,999,13233,.15151005E-4,.9E-6,0
STARLINK-31098,2024-002M,2026-05-15T19:37:46.202304,15.30196063,.00009341,53.1606,278.0818,90.3588,269.7520,0,U,58716,999,13229,.28381631E-4,.482E-5,0
STARLINK-31093,2024-002N,2026-05-15T19:48:25.959744,15.30175213,.0002188,53.1629,278.1392,89.4401,270.7365,0,U,58717,999,13229,0,-.7967E-4,0
STARLINK-31097,2024-002P,2026-05-15T19:43:51.027168,15.30193037,.00009735,53.1605,278.1063,89.4750,270.6362,0,U,58718,999,13229,.11452325E-4,-.2E-6,0
STARLINK-31051,2024-002Q,2026-05-15T19:51:26.735328,15.30195410,.00009623,53.1601,278.1359,82.6637,277.4474,0,U,58719,999,13229,.25868632E-4,.407E-5,0
STARLINK-31027,2024-002R,2026-05-15T20:05:58.738560,15.66156238,.00076651,53.1432,260.9464,226.6882,133.3495,0,U,58720,999,13253,.59114787E-3,.6193E-3,0
STARLINK-30972,2024-002S,2026-05-15T16:23:35.163168,15.30196245,.00008185,53.1590,278.6585,61.2835,298.8248,0,U,58721,999,13227,.4990116E-5,-.211E-5,0
STARLINK-31040,2024-002T,2026-05-16T06:54:19.072800,15.30237238,.00011256,53.1599,276.0307,96.7929,263.3199,0,U,58722,999,13236,.1437339E-3,.3905E-4,0
STARLINK-31033,2024-002U,2026-05-15T19:42:20.979360,15.30177695,.0002057,53.1561,278.0948,100.7454,259.4292,0,U,58723,999,13229,0,-.7229E-4,0
STARLINK-30893,2024-002V,2026-05-16T06:00:02.000160,15.33497944,.00010741,53.1595,276.3253,69.9961,25.6679,0,U,58724,999,566,.23359157E-2,.77119E-3,0
STARLINK-30856,2024-002W,2026-05-15T10:11:55.803552,15.30197641,.00009795,53.1608,279.8944,87.6619,272.4494,0,U,58725,999,13223,.20501693E-4,.248E-5,0
UNICORN-2L,2023-185R,2026-05-16T03:51:45.440640,15.20700954,.00142848,97.5404,209.9903,68.7715,291.5045,0,U,58727,999,12992,.31093602E-3,.6783E-4,0
STARLINK-31115,2024-005B,2026-05-16T04:47:18.629952,15.27579429,.00014047,43.0002,198.8909,275.7765,84.2926,0,U,58729,999,13075,.42916324E-4,.919E-5,0
STARLINK-31180,2024-005E,2026-05-15T13:51:47.326176,15.27605104,.00026943,43.0054,201.9917,292.1508,67.9057,0,U,58732,999,13066,-.17365254E-3,-.5042E-4,0
STARLINK-31164,2024-005F,2026-05-15T13:16:38.021376,15.27573254,.00018925,43.0025,201.7958,257.5535,102.5105,0,U,58733,999,13066,-.79467005E-4,-.2448E-4,0
STARLINK-31152,2024-005G,2026-05-16T03:29:37.227264,15.27574762,.00014478,43.0028,198.5008,280.9143,79.1546,0,U,58734,999,13076,.82473149E-4,.2008E-4,0
STARLINK-31157,2024-005H,2026-05-16T03:35:08.611872,15.27584202,.00014568,43.0046,198.5299,273.1348,86.9337,0,U,58735,999,13076,.6100105E-4,.1417E-4,0
STARLINK-31076,2024-005J,2026-05-16T03:40:42.066624,15.27586426,.00008537,43.0017,198.5557,292.3130,67.7631,0,U,58736,999,13080,.36926151E-4,.754E-5,0
STARLINK-31101,2024-005K,2026-05-16T05:29:37.798080,15.27602893,.00020974,43.0037,198.2594,269.0275,91.0336,0,U,58737,999,13076,.1794761E-3,.4683E-4,0
STARLINK-31108,2024-005L,2026-05-16T03:46:15.269088,15.27583811,.00024141,43.0050,198.5825,269.6537,90.4039,0,U,58738,999,13075,.85319562E-4,.2086E-4,0
STARLINK-31042,2024-005M,2026-05-16T05:35:12.618816,15.27581869,.00012724,43.0033,198.2839,273.3124,86.7582,0,U,58739,999,13077,.64921152E-4,.1525E-4,0
